IRIDIUM 171             
1 43929U 19002H   25140.57387782  .00000002  00000+0 -63591-5 0  9999
2 43929  86.3994 157.9545 0002579  87.8340 272.3151 14.34217028332682
IRIDIUM 170             
1 43930U 19002J   25140.51574588  .00000365  00000+0  53999-4 0  9998
2 43930  86.6106 157.7391 0002785  98.3590 261.7943 14.72255625341488
IRIDIUM 167             
1 43931U 19002K   25140.56753500  .00000033  00000+0  46200-5 0  9997
2 43931  86.3980 157.7136 0002814  92.7420 267.4098 14.34217483332680
IRIDIUM 181             
1 56726U 23068S   25140.49411412  .00000371  00000+0  10428-3 0  9991
2 56726  86.4544 220.7902 0002710  83.0499 277.1010 14.43311492105796
IRIDIUM 177             
1 56727U 23068T   25140.55724949  .00000479  00000+0  59562-4 0  9993
2 56727  86.1972 155.2410 0002756  89.2987 270.8550 14.80225877108283
IRIDIUM 174             
1 56728U 23068U   25140.57140527  .00000398  00000+0  59227-4 0  9998
2 56728  86.6114 157.8231 0002025  94.9902 265.1546 14.72269085108254
IRIDIUM 178             
1 56729U 23068V   25140.54634652  .00001151  00000+0  14809-3 0  9997
2 56729  86.6588 189.3634 0002223  90.8446 269.3030 14.80235214108288
IRIDIUM 179             
1 56730U 23068W   25140.54096916  .00001147  00000+0  14743-3 0  9996
2 56730  86.6831 197.1519 0002630  96.5342 263.6179 14.80240933108285
